[{"OBJECT_NAME":"STARLINK-30494","OBJECT_ID":"2023-151G","EPOCH":"2026-03-09T08:39:06.366240","MEAN_MOTION":15.28417441,"ECCENTRICITY":0.00011553,"INCLINATION":43.0027,"RA_OF_ASC_NODE":192.4566,"ARG_OF_PERICENTER":241.5536,"MEAN_ANOMALY":118.52,"EPHEMERIS_TYPE":0,"CLASSIFICATION_TYPE":"U","NORAD_CAT_ID":57970,"ELEMENT_SET_NO":999,"REV_AT_EPOCH":13740,"BSTAR":-3.569111e-5,"MEAN_MOTION_DOT":-1.272e-5,"MEAN_MOTION_DDOT":0},{"OBJECT_NAME":"STARLINK-34871","OBJECT_ID":"2025-176V","EPOCH":"2026-03-09T13:17:40.693344","MEAN_MOTION":15.30188645,"ECCENTRICITY":0.0001631,"INCLINATION":53.1607,"RA_OF_ASC_NODE":153.0749,"ARG_OF_PERICENTER":54.5475,"MEAN_ANOMALY":305.5678,"EPHEMERIS_TYPE":0,"CLASSIFICATION_TYPE":"U","NORAD_CAT_ID":65217,"ELEMENT_SET_NO":999,"REV_AT_EPOCH":3310,"BSTAR":0.00085814,"MEAN_MOTION_DOT":0.00025134,"MEAN_MOTION_DDOT":0}]
